NAVSTAR 77 (USA 289)    
1 43873U 18109A   24239.15188220 -.00000034  00000+0  00000+0 0  9997
2 43873  55.3214 118.2621 0030086 192.7541 353.2773  2.00558911 41831
